[{"OBJECT_NAME":"ONEWEB-0434","OBJECT_ID":"2022-012K","EPOCH":"2026-02-27T05:35:00.108960","MEAN_MOTION":13.10369973,"ECCENTRICITY":0.00016638,"INCLINATION":87.8751,"RA_OF_ASC_NODE":58.189,"ARG_OF_PERICENTER":67.5462,"MEAN_ANOMALY":292.5842,"EPHEMERIS_TYPE":0,"CLASSIFICATION_TYPE":"U","NORAD_CAT_ID":51631,"ELEMENT_SET_NO":999,"REV_AT_EPOCH":19492,"BSTAR":0.00051620935,"MEAN_MOTION_DOT":1.93e-6,"MEAN_MOTION_DDOT":0},{"OBJECT_NAME":"ONEWEB-0435","OBJECT_ID":"2022-012L","EPOCH":"2026-02-27T05:46:44.808960","MEAN_MOTION":13.10369927,"ECCENTRICITY":0.00016859,"INCLINATION":87.8754,"RA_OF_ASC_NODE":58.1778,"ARG_OF_PERICENTER":101.2598,"MEAN_ANOMALY":258.8719,"EPHEMERIS_TYPE":0,"CLASSIFICATION_TYPE":"U","NORAD_CAT_ID":51632,"ELEMENT_SET_NO":999,"REV_AT_EPOCH":19491,"BSTAR":-0.00073252314,"MEAN_MOTION_DOT":-2.43e-6,"MEAN_MOTION_DDOT":0},{"OBJECT_NAME":"ONEWEB-0436","OBJECT_ID":"2022-012M","EPOCH":"2026-02-27T04:20:13.063200","MEAN_MOTION":13.17649181,"ECCENTRICITY":0.00018513,"INCLINATION":87.9138,"RA_OF_ASC_NODE":27.6839,"ARG_OF_PERICENTER":89.9293,"MEAN_ANOMALY":270.205,"EPHEMERIS_TYPE":0,"CLASSIFICATION_TYPE":"U","NORAD_CAT_ID":51633,"ELEMENT_SET_NO":999,"REV_AT_EPOCH":19919,"BSTAR":-0.0002467588,"MEAN_MOTION_DOT":-8.3e-7,"MEAN_MOTION_DDOT":0},{"OBJECT_NAME":"ONEWEB-0438","OBJECT_ID":"2022-012N","EPOCH":"2026-02-27T05:22:51.687840","MEAN_MOTION":13.10370729,"ECCENTRICITY":0.00018327,"INCLINATION":87.8753,"RA_OF_ASC_NODE":58.1819,"ARG_OF_PERICENTER":82.6443,"MEAN_ANOMALY":277.4893,"EPHEMERIS_TYPE":0,"CLASSIFICATION_TYPE":"U","NORAD_CAT_ID":51634,"ELEMENT_SET_NO":999,"REV_AT_EPOCH":19494,"BSTAR":0.0013704018,"MEAN_MOTION_DOT":4.91e-6,"MEAN_MOTION_DDOT":0},{"OBJECT_NAME":"ONEWEB-0439","OBJECT_ID":"2022-012P","EPOCH":"2026-02-26T11:08:05.388000","MEAN_MOTION":13.10367603,"ECCENTRICITY":0.0001726,"INCLINATION":87.8752,"RA_OF_ASC_NODE":58.3232,"ARG_OF_PERICENTER":88.4317,"MEAN_ANOMALY":271.7008,"EPHEMERIS_TYPE":0,"CLASSIFICATION_TYPE":"U","NORAD_CAT_ID":51635,"ELEMENT_SET_NO":999,"REV_AT_EPOCH":19482,"BSTAR":0.00061286,"MEAN_MOTION_DOT":2.27e-6,"MEAN_MOTION_DDOT":0},{"OBJECT_NAME":"ONEWEB-0442","OBJECT_ID":"2022-012Q","EPOCH":"2026-02-26T20:51:54.163296","MEAN_MOTION":13.17647453,"ECCENTRICITY":0.0002045,"INCLINATION":87.9128,"RA_OF_ASC_NODE":27.7857,"ARG_OF_PERICENTER":65.5578,"MEAN_ANOMALY":294.5767,"EPHEMERIS_TYPE":0,"CLASSIFICATION_TYPE":"U","NORAD_CAT_ID":51636,"ELEMENT_SET_NO":999,"REV_AT_EPOCH":19914,"BSTAR":-6.2002e-5,"MEAN_MOTION_DOT":-1.1e-7,"MEAN_MOTION_DDOT":0},{"OBJECT_NAME":"ONEWEB-0443","OBJECT_ID":"2022-012R","EPOCH":"2026-02-27T04:37:14.218752","MEAN_MOTION":13.17650047,"ECCENTRICITY":0.00015535,"INCLINATION":87.9126,"RA_OF_ASC_NODE":27.7242,"ARG_OF_PERICENTER":79.0808,"MEAN_ANOMALY":281.0498,"EPHEMERIS_TYPE":0,"CLASSIFICATION_TYPE":"U","NORAD_CAT_ID":51637,"ELEMENT_SET_NO":999,"REV_AT_EPOCH":19923,"BSTAR":-1.4584989e-5,"MEAN_MOTION_DOT":7.0e-8,"MEAN_MOTION_DDOT":0},{"OBJECT_NAME":"ONEWEB-0444","OBJECT_ID":"2022-012S","EPOCH":"2026-02-27T07:03:15.490656","MEAN_MOTION":13.10372991,"ECCENTRICITY":0.00018035,"INCLINATION":87.8754,"RA_OF_ASC_NODE":58.156,"ARG_OF_PERICENTER":89.0535,"MEAN_ANOMALY":271.0798,"EPHEMERIS_TYPE":0,"CLASSIFICATION_TYPE":"U","NORAD_CAT_ID":51638,"ELEMENT_SET_NO":999,"REV_AT_EPOCH":19494,"BSTAR":0.0020368334,"MEAN_MOTION_DOT":7.24e-6,"MEAN_MOTION_DDOT":0},{"OBJECT_NAME":"ONEWEB-0445","OBJECT_ID":"2022-012T","EPOCH":"2026-02-27T05:44:21.696000","MEAN_MOTION":13.10369863,"ECCENTRICITY":0.00021741,"INCLINATION":87.8777,"RA_OF_ASC_NODE":58.144,"ARG_OF_PERICENTER":92.6029,"MEAN_ANOMALY":267.5347,"EPHEMERIS_TYPE":0,"CLASSIFICATION_TYPE":"U","NORAD_CAT_ID":51639,"ELEMENT_SET_NO":999,"REV_AT_EPOCH":19494,"BSTAR":-0.00048523718,"MEAN_MOTION_DOT":-1.57e-6,"MEAN_MOTION_DDOT":0},{"OBJECT_NAME":"ONEWEB-0446","OBJECT_ID":"2022-012U","EPOCH":"2026-02-27T07:00:51.962976","MEAN_MOTION":13.10373097,"ECCENTRICITY":0.00020274,"INCLINATION":87.8757,"RA_OF_ASC_NODE":58.1722,"ARG_OF_PERICENTER":87.8111,"MEAN_ANOMALY":272.3249,"EPHEMERIS_TYPE":0,"CLASSIFICATION_TYPE":"U","NORAD_CAT_ID":51640,"ELEMENT_SET_NO":999,"REV_AT_EPOCH":19493,"BSTAR":0.001904401,"MEAN_MOTION_DOT":6.78e-6,"MEAN_MOTION_DDOT":0},{"OBJECT_NAME":"ONEWEB-0448","OBJECT_ID":"2022-012V","EPOCH":"2026-02-27T05:18:04.948704","MEAN_MOTION":13.1037184,"ECCENTRICITY":0.00018115,"INCLINATION":87.8752,"RA_OF_ASC_NODE":58.1851,"ARG_OF_PERICENTER":88.9575,"MEAN_ANOMALY":271.1759,"EPHEMERIS_TYPE":0,"CLASSIFICATION_TYPE":"U","NORAD_CAT_ID":51641,"ELEMENT_SET_NO":999,"REV_AT_EPOCH":19489,"BSTAR":0.001816319,"MEAN_MOTION_DOT":6.47e-6,"MEAN_MOTION_DDOT":0},{"OBJECT_NAME":"ONEWEB-0449","OBJECT_ID":"2022-012W","EPOCH":"2026-02-27T05:25:14.890656","MEAN_MOTION":13.10370799,"ECCENTRICITY":0.00017096,"INCLINATION":87.8763,"RA_OF_ASC_NODE":58.1615,"ARG_OF_PERICENTER":73.5333,"MEAN_ANOMALY":286.5982,"EPHEMERIS_TYPE":0,"CLASSIFICATION_TYPE":"U","NORAD_CAT_ID":51642,"ELEMENT_SET_NO":999,"REV_AT_EPOCH":19490,"BSTAR":0.001239889,"MEAN_MOTION_DOT":4.45e-6,"MEAN_MOTION_DDOT":0},{"OBJECT_NAME":"ONEWEB-0451","OBJECT_ID":"2022-012X","EPOCH":"2026-02-27T04:15:22.365216","MEAN_MOTION":13.17648393,"ECCENTRICITY":0.00018252,"INCLINATION":87.9138,"RA_OF_ASC_NODE":27.6798,"ARG_OF_PERICENTER":79.3619,"MEAN_ANOMALY":280.7718,"EPHEMERIS_TYPE":0,"CLASSIFICATION_TYPE":"U","NORAD_CAT_ID":51643,"ELEMENT_SET_NO":999,"REV_AT_EPOCH":19917,"BSTAR":5.169257e-6,"MEAN_MOTION_DOT":1.5e-7,"MEAN_MOTION_DDOT":0},{"OBJECT_NAME":"ONEWEB-0452","OBJECT_ID":"2022-012Y","EPOCH":"2026-02-26T20:55:33.405888","MEAN_MOTION":13.17648236,"ECCENTRICITY":0.0001613,"INCLINATION":87.9127,"RA_OF_ASC_NODE":27.788,"ARG_OF_PERICENTER":77.3324,"MEAN_ANOMALY":282.7987,"EPHEMERIS_TYPE":0,"CLASSIFICATION_TYPE":"U","NORAD_CAT_ID":51644,"ELEMENT_SET_NO":999,"REV_AT_EPOCH":19914,"BSTAR":1.2516e-5,"MEAN_MOTION_DOT":1.8e-7,"MEAN_MOTION_DDOT":0},{"OBJECT_NAME":"ONEWEB-0456","OBJECT_ID":"2022-012AA","EPOCH":"2026-02-27T05:39:34.106688","MEAN_MOTION":13.10369032,"ECCENTRICITY":0.00018031,"INCLINATION":87.8771,"RA_OF_ASC_NODE":58.1372,"ARG_OF_PERICENTER":93.3606,"MEAN_ANOMALY":266.7728,"EPHEMERIS_TYPE":0,"CLASSIFICATION_TYPE":"U","NORAD_CAT_ID":51646,"ELEMENT_SET_NO":999,"REV_AT_EPOCH":19494,"BSTAR":-0.00024061201,"MEAN_MOTION_DOT":-7.1e-7,"MEAN_MOTION_DDOT":0},{"OBJECT_NAME":"ONEWEB-0457","OBJECT_ID":"2022-012AB","EPOCH":"2026-02-27T06:56:06.206208","MEAN_MOTION":13.10376469,"ECCENTRICITY":0.00021923,"INCLINATION":87.8757,"RA_OF_ASC_NODE":58.1604,"ARG_OF_PERICENTER":79.8164,"MEAN_ANOMALY":280.321,"EPHEMERIS_TYPE":0,"CLASSIFICATION_TYPE":"U","NORAD_CAT_ID":51647,"ELEMENT_SET_NO":999,"REV_AT_EPOCH":19495,"BSTAR":0.0018885232,"MEAN_MOTION_DOT":6.72e-6,"MEAN_MOTION_DDOT":0},{"OBJECT_NAME":"ONEWEB-0458","OBJECT_ID":"2022-012AC","EPOCH":"2026-02-27T05:37:11.714304","MEAN_MOTION":13.10369467,"ECCENTRICITY":0.00017042,"INCLINATION":87.8759,"RA_OF_ASC_NODE":58.1516,"ARG_OF_PERICENTER":85.9977,"MEAN_ANOMALY":274.1345,"EPHEMERIS_TYPE":0,"CLASSIFICATION_TYPE":"U","NORAD_CAT_ID":51648,"ELEMENT_SET_NO":999,"REV_AT_EPOCH":19490,"BSTAR":7.074639e-5,"MEAN_MOTION_DOT":3.7e-7,"MEAN_MOTION_DDOT":0}]
