ONEWEB-0434             
1 51631U 22012K   26058.23264015  .00000193  00000+0  51621-3 0  9997
2 51631  87.8751  58.1890 0001663  67.5462 292.5842 13.10369973194920
ONEWEB-0435             
1 51632U 22012L   26058.24079640 -.00000243  00000+0 -73252-3 0  9999
2 51632  87.8754  58.1778 0001685 101.2598 258.8719 13.10369927194915
ONEWEB-0436             
1 51633U 22012M   26058.18070675 -.00000083  00000+0 -24676-3 0  9990
2 51633  87.9138  27.6839 0001851  89.9293 270.2050 13.17649181199192
ONEWEB-0438             
1 51634U 22012N   26058.22420935  .00000491  00000+0  13704-2 0  9994
2 51634  87.8753  58.1819 0001832  82.6443 277.4893 13.10370729194942
ONEWEB-0439             
1 51635U 22012P   26057.46395125  .00000227  00000+0  61286-3 0  9998
2 51635  87.8752  58.3232 0001726  88.4317 271.7008 13.10367603194828
ONEWEB-0442             
1 51636U 22012Q   26057.86937689 -.00000011  00000+0 -62002-4 0  9991
2 51636  87.9128  27.7857 0002045  65.5578 294.5767 13.17647453199146
ONEWEB-0443             
1 51637U 22012R   26058.19252568  .00000007  00000+0 -14585-4 0  9992
2 51637  87.9126  27.7242 0001553  79.0808 281.0498 13.17650047199237
ONEWEB-0444             
1 51638U 22012S   26058.29392929  .00000724  00000+0  20368-2 0  9999
2 51638  87.8754  58.1560 0001803  89.0535 271.0798 13.10372991194948
ONEWEB-0445             
1 51639U 22012T   26058.23914000 -.00000157  00000+0 -48524-3 0  9991
2 51639  87.8777  58.1440 0002174  92.6029 267.5347 13.10369863194945
ONEWEB-0446             
1 51640U 22012U   26058.29226809  .00000678  00000+0  19044-2 0  9992
2 51640  87.8757  58.1722 0002027  87.8111 272.3249 13.10373097194931
ONEWEB-0448             
1 51641U 22012V   26058.22089061  .00000647  00000+0  18163-2 0  9990
2 51641  87.8752  58.1851 0001811  88.9575 271.1759 13.10371840194898
ONEWEB-0449             
1 51642U 22012W   26058.22586679  .00000445  00000+0  12399-2 0  9999
2 51642  87.8763  58.1615 0001709  73.5333 286.5982 13.10370799194909
ONEWEB-0451             
1 51643U 22012X   26058.17734219  .00000015  00000+0  51693-5 0  9995
2 51643  87.9138  27.6798 0001825  79.3619 280.7718 13.17648393199172
ONEWEB-0452             
1 51644U 22012Y   26057.87191442  .00000018  00000+0  12516-4 0  9990
2 51644  87.9127  27.7880 0001613  77.3324 282.7987 13.17648236199143
ONEWEB-0456             
1 51646U 22012AA  26058.23581142 -.00000071  00000+0 -24061-3 0  9991
2 51646  87.8771  58.1372 0001803  93.3606 266.7728 13.10369032194940
ONEWEB-0457             
1 51647U 22012AB  26058.28896072  .00000672  00000+0  18885-2 0  9999
2 51647  87.8757  58.1604 0002192  79.8164 280.3210 13.10376469194954
ONEWEB-0458             
1 51648U 22012AC  26058.23416336  .00000037  00000+0  70746-4 0  9997
2 51648  87.8759  58.1516 0001704  85.9977 274.1345 13.10369467194902
